     2.100          NAVIGATION                              RINEX VERSION / TYPE
fic2rin                                 10/16/2013 00:30:01 PGM / RUN BY / DATE
                                                            END OF HEADER
 9 13 10 15 20  0  0.0  .275783706456D-03  .272848410532D-11  .000000000000D+00
     .260000000000D+02 -.453125000000D+02  .370086844174D-08 -.219247496259D+01
    -.222586095333D-05  .168222315842D-01  .123120844364D-04  .515371943283D+04
     .244800000000D+06  .230967998505D-06 -.831099024919D+00  .182539224625D-06
     .983406259824D+00  .149062500000D+03  .173451533945D+01 -.744352433838D-08
    -.312870175156D-09  .100000000000D+01  .176200000000D+04  .000000000000D+00
     .240000000000D+01  .000000000000D+00 -.558793544769D-08  .260000000000D+02
     .237606000000D+06  .400000000000D+01
10 13 10 15 20  0  0.0 -.981469638646D-04 -.125055521494D-11  .000000000000D+00
     .950000000000D+02  .853750000000D+02  .515057168484D-08  .537612857368D+00
     .472925603390D-05  .129366754554D-01  .861659646034D-05  .515366932297D+04
     .244800000000D+06 -.577419996262D-07 -.291002718844D+01  .106170773506D-06
     .943335238111D+00  .202656250000D+03  .823620548199D+00 -.861964475709D-08
     .286797660559D-09  .100000000000D+01  .176200000000D+04  .000000000000D+00
     .340000000000D+01  .000000000000D+00 -.232830643654D-08  .950000000000D+02
     .237606000000D+06  .400000000000D+01
12 13 10 15 20  0  0.0  .162275973707D-03  .227373675443D-11  .000000000000D+00
     .270000000000D+02  .664375000000D+02  .389837666875D-08  .260245383515D+01
     .348500907421D-05  .452671363018D-02  .850483775139D-05  .515374629211D+04
     .244800000000D+06 -.108033418655D-06  .250768364229D+00 -.391155481339D-07
     .985772458134D+00  .226625000000D+03  .334848722102D+00 -.779782481070D-08
     .545022702383D-09  .100000000000D+01  .176200000000D+04  .000000000000D+00
     .240000000000D+01  .000000000000D+00 -.116415321827D-07  .270000000000D+02
     .237606000000D+06  .400000000000D+01
13 13 10 15 20  0  0.0  .697644427419D-04 -.386535248253D-11  .000000000000D+00
     .330000000000D+02 -.335312500000D+02  .450911639423D-08 -.102709009232D+01
    -.182911753654D-05  .501250510570D-02  .443123281002D-05  .515368426704D+04
     .244800000000D+06 -.502914190292D-07 -.177533706927D+01  .149011611938D-07
     .979673023085D+00  .304437500000D+03  .220169304494D+01 -.831856078716D-08
    -.317513225700D-09  .100000000000D+01  .176200000000D+04  .000000000000D+00
     .240000000000D+01  .000000000000D+00 -.107102096081D-07  .330000000000D+02
     .237606000000D+06  .400000000000D+01
15 13 10 15 20  0  0.0 -.142137985677D-03 -.193267624127D-11  .000000000000D+00
     .830000000000D+02 -.193750000000D+02  .541058251534D-08 -.124776403289D+01
    -.102072954178D-05  .567236146890D-02  .298395752907D-05  .515357292366D+04
     .244800000000D+06  .484287738800D-07 -.191026577074D+01 -.132247805595D-06
     .938964230532D+00  .311156250000D+03  .164212406643D+00 -.871714881852D-08
    -.165364030933D-09  .100000000000D+01  .176200000000D+04  .000000000000D+00
     .240000000000D+01  .000000000000D+00 -.977888703346D-08  .830000000000D+02
     .237606000000D+06  .400000000000D+01
16 13 10 15 20  0  0.0 -.244406051934D-03  .909494701773D-12  .000000000000D+00
     .750000000000D+02  .640625000000D+02  .397730852801D-08  .433396595154D+00
     .343099236488D-05  .708610785659D-02  .800564885139D-05  .515372933578D+04
     .244800000000D+06  .180676579475D-06  .269208445155D+00  .745058059692D-07
     .986420580582D+00  .237468750000D+03  .135969968518D+00 -.797461788913D-08
     .536808074497D-09  .100000000000D+01  .176200000000D+04  .000000000000D+00
     .240000000000D+01  .000000000000D+00 -.977888703346D-08  .750000000000D+02
     .237606000000D+06  .400000000000D+01
17 13 10 15 20  0  0.0 -.313180498779D-04 -.375166564481D-11  .000000000000D+00
     .490000000000D+02 -.398750000000D+02  .501520890358D-08 -.518559990779D+00
    -.193156301975D-05  .860849989112D-02  .410713255405D-05  .515368567657D+04
     .244800000000D+06 -.167638063431D-07  .130414224925D+01  .154599547386D-06
     .966206606155D+00  .305281250000D+03 -.218955403891D+01 -.860250118585D-08
    -.136791412197D-09  .100000000000D+01  .176200000000D+04  .000000000000D+00
     .240000000000D+01  .000000000000D+00 -.102445483208D-07  .490000000000D+02
     .237606000000D+06  .400000000000D+01
18 13 10 15 20  0  0.0  .279533211142D-03  .204636307899D-11  .000000000000D+00
     .750000000000D+02  .779375000000D+02  .547844248483D-08  .100224314704D+01
     .416859984398D-05  .145797060104D-01  .880286097527D-05  .515364643478D+04
     .244800000000D+06 -.229105353355D-06 -.292908086548D+01  .132247805595D-06
     .927107412625D+00  .195875000000D+03 -.207519803841D+01 -.883643950175D-08
     .224652214809D-09  .100000000000D+01  .176200000000D+04  .000000000000D+00
     .240000000000D+01  .000000000000D+00 -.107102096081D-07  .750000000000D+02
     .237606000000D+06  .400000000000D+01
20 13 10 15 20  0  0.0  .129600986838D-03  .272848410532D-11  .000000000000D+00
     .290000000000D+02  .887812500000D+02  .537058084911D-08  .148226914269D+01
     .450015068054D-05  .565369671676D-02  .922568142414D-05  .515366462326D+04
     .244800000000D+06 -.931322574615D-07 -.298234909209D+01 -.856816768646D-07
     .927981656858D+00  .183156250000D+03  .128816347386D+01 -.855857078454D-08
     .412160025262D-09  .100000000000D+01  .176200000000D+04  .000000000000D+00
     .240000000000D+01  .000000000000D+00 -.791624188423D-08  .290000000000D+02
     .237606000000D+06  .400000000000D+01
21 13 10 15 20  0  0.0 -.323730520904D-03 -.181898940355D-11  .000000000000D+00
     .100000000000D+03 -.559062500000D+02  .500806574890D-08  .202333299601D+01
    -.311248004436D-05  .206131305313D-01  .112950801849D-04  .515362655067D+04
     .244800000000D+06 -.162050127983D-06  .230786681297D+01 -.491738319397D-06
     .931898732660D+00  .150718750000D+03 -.209898461239D+01 -.814783939022D-08
    -.200365488884D-09  .100000000000D+01  .176200000000D+04  .000000000000D+00
     .240000000000D+01  .000000000000D+00 -.111758708954D-07  .100000000000D+03
     .237606000000D+06  .400000000000D+01
22 13 10 15 20  0  0.0  .189943239093D-03  .204636307899D-11  .000000000000D+00
     .300000000000D+02  .848125000000D+02  .556558897198D-08  .427642101559D+00
     .452436506748D-05  .674709852319D-02  .811927020550D-05  .515364985847D+04
     .244800000000D+06 -.558793544769D-07 -.292675402698D+01  .670552253723D-07
     .924865260990D+00  .204875000000D+03 -.203928745770D+01 -.876000774663D-08
     .287154818294D-09  .100000000000D+01  .176200000000D+04  .000000000000D+00
     .240000000000D+01  .000000000000D+00 -.172294676304D-07  .300000000000D+02
     .237606000000D+06  .400000000000D+01
23 13 10 15 20  0  0.0  .389530323446D-04 -.341060513165D-11  .000000000000D+00
     .610000000000D+02 -.251250000000D+02  .506806824824D-08 -.178709527919D+01
    -.145100057125D-05  .886797963176D-02  .368431210518D-05  .515364118958D+04
     .244800000000D+06  .279396772385D-07 -.186694283721D+01 -.800937414169D-07
     .953931430250D+00  .303343750000D+03 -.281445041423D+01 -.851856911831D-08
    -.179293182566D-09  .100000000000D+01  .176200000000D+04  .000000000000D+00
     .240000000000D+01  .000000000000D+00 -.200234353542D-07  .610000000000D+02
     .237606000000D+06  .400000000000D+01
25 13 10 15 20  0  0.0  .157739501446D-03  .363797880709D-11  .000000000000D+00
     .350000000000D+02  .616250000000D+02  .415910181471D-08  .165187721692D+01
     .317394733429D-05  .274865073152D-02  .845082104206D-05  .515371274185D+04
     .244800000000D+06 -.633299350739D-07  .210923114663D+00  .596046447754D-07
     .974577970536D+00  .220968750000D+03  .717757108985D+00 -.802247702551D-08
     .488234622646D-09  .100000000000D+01  .176200000000D+04  .000000000000D+00
     .240000000000D+01  .000000000000D+00  .558793544769D-08  .350000000000D+02
     .237606000000D+06  .400000000000D+01
26 13 10 15 20  0  0.0  .240322202444D-03  .190993887372D-10  .000000000000D+00
     .200000000000D+02 -.346250000000D+02  .443661337418D-08 -.177945466726D+01
    -.155717134476D-05  .210931218462D-01  .357627868652D-05  .515367844391D+04
     .244800000000D+06  .474974513054D-06 -.178325040863D+01  .113621354103D-06
     .977109237207D+00  .315312500000D+03  .125265178556D+01 -.803319175754D-08
    -.299655338991D-09  .100000000000D+01  .176200000000D+04  .000000000000D+00
     .240000000000D+01  .000000000000D+00 -.558793544769D-08  .200000000000D+02
     .237606000000D+06  .400000000000D+01
27 13 10 15 20  0  0.0 -.481647439301D-04 -.409272615798D-11  .000000000000D+00
     .950000000000D+02 -.375937500000D+02  .500270838288D-08 -.128402777959D+01
    -.193715095520D-05  .443640048616D-03  .415742397308D-05  .515366007805D+04
     .244800000000D+06 -.428408384323D-07  .126000863966D+01 -.111758708954D-07
     .960846048603D+00  .298718750000D+03  .878504689247D+00 -.848856786864D-08
    -.917895376884D-10  .100000000000D+01  .176200000000D+04  .000000000000D+00
     .240000000000D+01  .000000000000D+00  .186264514923D-08  .950000000000D+02
     .237606000000D+06  .400000000000D+01
28 13 10 15 20  0  0.0  .300850253552D-03  .306954461848D-11  .000000000000D+00
     .420000000000D+02  .657500000000D+02  .410802825872D-08  .275562231919D+00
     .345334410667D-05  .188654813683D-01  .872276723385D-05  .515365262794D+04
     .244800000000D+06 -.296160578728D-06  .275273871747D+00 -.931322574615D-08
     .984890268793D+00  .227375000000D+03 -.176017989501D+01 -.825177229087D-08
     .495734935064D-09  .100000000000D+01  .176200000000D+04  .000000000000D+00
     .240000000000D+01  .000000000000D+00 -.107102096081D-07  .420000000000D+02
     .237606000000D+06  .400000000000D+01
